{
  "type": "FeatureCollection",
  "features": [
    {
      "type": "Feature",
      "properties": {
        "norad_id": 35744,
        "name": "IRIDIUM 33 DEB",
        "group": "iridium-33-debris",
        "lat": 41.75314895290499,
        "lon": 136.91669789339468,
        "alt_km": 639.3402744371351,
        "timestamp": "2025-12-24T07:45:06.584238+00:00",
        "meta_object_name": "IRIDIUM 33 DEB",
        "meta_object_id": "1997-051RX",
        "meta_epoch": "2025-12-23T03:22:28.782624",
        "meta_mean_motion": 14.71122887,
        "meta_eccentricity": 0.00216776,
        "meta_inclination": 86.3298,
        "meta_ra_of_asc_node": 320.7354,
        "meta_arg_of_pericenter": 155.7913,
        "meta_mean_anomaly": 204.4327,
        "meta_ephemeris_type": 0,
        "meta_classification_type": "U",
        "meta_norad_cat_id": 35744,
        "meta_element_set_no": 999,
        "meta_rev_at_epoch": 87484,
        "meta_bstar": 0.0012113531,
        "meta_mean_motion_dot": 7.502e-05,
        "meta_mean_motion_ddot": 0,
        "tle_line1": "1 35744U 97051RX  25357.14061091  .00007502  00000+0  12114-2 0  9993",
        "tle_line2": "2 35744  86.3298 320.7354 0021677 155.7913 204.4327 14.71122887874843"
      },
      "geometry": {
        "type": "Point",
        "coordinates": [
          136.91669789339468,
          41.75314895290499
        ]
      }
    },
    {
      "type": "Feature",
      "properties": {
        "norad_id": 35797,
        "name": "IRIDIUM 33 DEB",
        "group": "iridium-33-debris",
        "lat": -1.2856064518655528,
        "lon": -35.43310979856916,
        "alt_km": 626.8514982762144,
        "timestamp": "2025-12-24T07:45:06.584248+00:00",
        "meta_object_name": "IRIDIUM 33 DEB",
        "meta_object_id": "1997-051SF",
        "meta_epoch": "2025-12-23T04:13:41.927808",
        "meta_mean_motion": 14.83019917,
        "meta_eccentricity": 0.00147795,
        "meta_inclination": 86.3362,
        "meta_ra_of_asc_node": 325.1762,
        "meta_arg_of_pericenter": 114.8894,
        "meta_mean_anomaly": 245.3866,
        "meta_ephemeris_type": 0,
        "meta_classification_type": "U",
        "meta_norad_cat_id": 35797,
        "meta_element_set_no": 999,
        "meta_rev_at_epoch": 87495,
        "meta_bstar": 0.0018258905,
        "meta_mean_motion_dot": 0.0001491,
        "meta_mean_motion_ddot": 0,
        "tle_line1": "1 35797U 97051SF  25357.17617972  .00014910  00000+0  18259-2 0  9996",
        "tle_line2": "2 35797  86.3362 325.1762 0014779 114.8894 245.3866 14.83019917874950"
      },
      "geometry": {
        "type": "Point",
        "coordinates": [
          -35.43310979856916,
          -1.2856064518655528
        ]
      }
    },
    {
      "type": "Feature",
      "properties": {
        "norad_id": 35806,
        "name": "IRIDIUM 33 DEB",
        "group": "iridium-33-debris",
        "lat": -37.47257022180741,
        "lon": 12.717580331741061,
        "alt_km": 705.5568918975014,
        "timestamp": "2025-12-24T07:45:06.584258+00:00",
        "meta_object_name": "IRIDIUM 33 DEB",
        "meta_object_id": "1997-051SQ",
        "meta_epoch": "2025-12-23T18:44:28.886496",
        "meta_mean_motion": 14.57443021,
        "meta_eccentricity": 0.00152726,
        "meta_inclination": 86.3434,
        "meta_ra_of_asc_node": 15.7661,
        "meta_arg_of_pericenter": 41.8859,
        "meta_mean_anomaly": 318.3515,
        "meta_ephemeris_type": 0,
        "meta_classification_type": "U",
        "meta_norad_cat_id": 35806,
        "meta_element_set_no": 999,
        "meta_rev_at_epoch": 86485,
        "meta_bstar": 0.0011018111,
        "meta_mean_motion_dot": 5.028e-05,
        "meta_mean_motion_ddot": 0,
        "tle_line1": "1 35806U 97051SQ  25357.78088989  .00005028  00000+0  11018-2 0  9990",
        "tle_line2": "2 35806  86.3434  15.7661 0015272  41.8859 318.3515 14.57443021864858"
      },
      "geometry": {
        "type": "Point",
        "coordinates": [
          12.717580331741061,
          -37.47257022180741
        ]
      }
    },
    {
      "type": "Feature",
      "properties": {
        "norad_id": 35809,
        "name": "IRIDIUM 33 DEB",
        "group": "iridium-33-debris",
        "lat": 13.972303083990319,
        "lon": -29.01216227976834,
        "alt_km": 650.5540743101046,
        "timestamp": "2025-12-24T07:45:06.584269+00:00",
        "meta_object_name": "IRIDIUM 33 DEB",
        "meta_object_id": "1997-051ST",
        "meta_epoch": "2025-12-21T16:13:39.380736",
        "meta_mean_motion": 14.75870585,
        "meta_eccentricity": 0.00102664,
        "meta_inclination": 86.3279,
        "meta_ra_of_asc_node": 331.2775,
        "meta_arg_of_pericenter": 205.8578,
        "meta_mean_anomaly": 154.2129,
        "meta_ephemeris_type": 0,
        "meta_classification_type": "U",
        "meta_norad_cat_id": 35809,
        "meta_element_set_no": 999,
        "meta_rev_at_epoch": 86939,
        "meta_bstar": 0.0013721853,
        "meta_mean_motion_dot": 9.452e-05,
        "meta_mean_motion_ddot": 0,
        "tle_line1": "1 35809U 97051ST  25355.67615024  .00009452  00000+0  13722-2 0  9994",
        "tle_line2": "2 35809  86.3279 331.2775 0010266 205.8578 154.2129 14.75870585869399"
      },
      "geometry": {
        "type": "Point",
        "coordinates": [
          -29.01216227976834,
          13.972303083990319
        ]
      }
    },
    {
      "type": "Feature",
      "properties": {
        "norad_id": 35846,
        "name": "IRIDIUM 33 DEB",
        "group": "iridium-33-debris",
        "lat": -56.49293782827364,
        "lon": -120.60605409786949,
        "alt_km": 758.0948935367142,
        "timestamp": "2025-12-24T07:45:06.584279+00:00",
        "meta_object_name": "IRIDIUM 33 DEB",
        "meta_object_id": "1997-051SW",
        "meta_epoch": "2025-12-23T14:01:12.504000",
        "meta_mean_motion": 14.43194543,
        "meta_eccentricity": 0.00197172,
        "meta_inclination": 86.3733,
        "meta_ra_of_asc_node": 54.2121,
        "meta_arg_of_pericenter": 136.6832,
        "meta_mean_anomaly": 223.5924,
        "meta_ephemeris_type": 0,
        "meta_classification_type": "U",
        "meta_norad_cat_id": 35846,
        "meta_element_set_no": 999,
        "meta_rev_at_epoch": 71485,
        "meta_bstar": 0.00049457633,
        "meta_mean_motion_dot": 1.685e-05,
        "meta_mean_motion_ddot": 0,
        "tle_line1": "1 35846U 97051SW  25357.58417250  .00001685  00000+0  49458-3 0  9994",
        "tle_line2": "2 35846  86.3733  54.2121 0019717 136.6832 223.5924 14.43194543714857"
      },
      "geometry": {
        "type": "Point",
        "coordinates": [
          -120.60605409786949,
          -56.49293782827364
        ]
      }
    },
    {
      "type": "Feature",
      "properties": {
        "norad_id": 35848,
        "name": "IRIDIUM 33 DEB",
        "group": "iridium-33-debris",
        "lat": 86.19363574920091,
        "lon": 82.53373881707915,
        "alt_km": 622.2903280209639,
        "timestamp": "2025-12-24T07:45:06.584289+00:00",
        "meta_object_name": "IRIDIUM 33 DEB",
        "meta_object_id": "1997-051SY",
        "meta_epoch": "2025-12-23T08:36:58.937472",
        "meta_mean_motion": 14.78845827,
        "meta_eccentricity": 0.00091619,
        "meta_inclination": 86.3897,
        "meta_ra_of_asc_node": 11.347,
        "meta_arg_of_pericenter": 152.9599,
        "meta_mean_anomaly": 207.2101,
        "meta_ephemeris_type": 0,
        "meta_classification_type": "U",
        "meta_norad_cat_id": 35848,
        "meta_element_set_no": 999,
        "meta_rev_at_epoch": 66847,
        "meta_bstar": 0.0014935306,
        "meta_mean_motion_dot": 0.00011029,
        "meta_mean_motion_ddot": 0,
        "tle_line1": "1 35848U 97051SY  25357.35901548  .00011029  00000+0  14935-2 0  9993",
        "tle_line2": "2 35848  86.3897  11.3470 0009161 152.9599 207.2101 14.78845827668472"
      },
      "geometry": {
        "type": "Point",
        "coordinates": [
          82.53373881707915,
          86.19363574920091
        ]
      }
    },
    {
      "type": "Feature",
      "properties": {
        "norad_id": 35850,
        "name": "IRIDIUM 33 DEB",
        "group": "iridium-33-debris",
        "lat": 61.66078739786733,
        "lon": -14.227893569546342,
        "alt_km": 625.3583341994863,
        "timestamp": "2025-12-24T07:45:06.584299+00:00",
        "meta_object_name": "IRIDIUM 33 DEB",
        "meta_object_id": "1997-051TA",
        "meta_epoch": "2025-12-23T16:51:33.482304",
        "meta_mean_motion": 14.79050016,
        "meta_eccentricity": 0.00107739,
        "meta_inclination": 86.3501,
        "meta_ra_of_asc_node": 339.2572,
        "meta_arg_of_pericenter": 146.4147,
        "meta_mean_anomaly": 213.7758,
        "meta_ephemeris_type": 0,
        "meta_classification_type": "U",
        "meta_norad_cat_id": 35850,
        "meta_element_set_no": 999,
        "meta_rev_at_epoch": 71519,
        "meta_bstar": 0.001670653,
        "meta_mean_motion_dot": 0.00012399,
        "meta_mean_motion_ddot": 0,
        "tle_line1": "1 35850U 97051TA  25357.70247086  .00012399  00000+0  16707-2 0  9995",
        "tle_line2": "2 35850  86.3501 339.2572 0010773 146.4147 213.7758 14.79050016715191"
      },
      "geometry": {
        "type": "Point",
        "coordinates": [
          -14.227893569546342,
          61.66078739786733
        ]
      }
    }
  ]
}